STARLINK-1816           
1 46714U 20073AW  25062.12220168  .00007700  00000+0  53522-3 0  9994
2 46714  53.0524 109.6491 0001344  97.8559 262.2583 15.06401863241603
STARLINK-1817           
1 46715U 20073AX  25061.45503946  .00003123  00000+0  22847-3 0  9999
2 46715  53.0526 112.6449 0001337  95.5070 264.6072 15.06396429241507
STARLINK-1818           
1 46716U 20073AY  25062.10145806  .00041074  00000+0  86701-3 0  9996
2 46716  53.0526 104.0835 0010182 273.6863  86.2978 15.44770612241683
STARLINK-1820           
1 46717U 20073AZ  25061.42837662  .00017155  00000+0  10061-2 0  9997
2 46717  53.0532 112.2898 0001853  42.9925 317.1211 15.11869548241500
STARLINK-1821           
1 46718U 20073BA  25061.45181950 -.00002575  00000+0 -15407-3 0  9995
2 46718  53.0516 127.6951 0001300  88.6152 271.4986 15.06392293240815
STARLINK-1822           
1 46719U 20073BB  25061.49742298  .00002855  00000+0  21053-3 0  9991
2 46719  53.0537  92.4516 0001193  86.4688 273.6438 15.06394756241313
STARLINK-1826           
1 46723U 20073BF  25061.49973460 -.00000074  00000+0  13949-4 0  9991
2 46723  53.0544  87.4453 0001752  92.2963 267.8226 15.06401546241385
STARLINK-1828           
1 46725U 20073BH  25061.43706914  .00004004  00000+0  28753-3 0  9999
2 46725  53.0529 127.7241 0001297 106.2252 253.8880 15.06397067240814
STARLINK-1830           
1 46727U 20073BK  25058.49938689  .00003812  00000+0  27463-3 0  9992
2 46727  53.0549 100.9118 0001666  83.3764 276.7414 15.06401410240935
STARLINK-1848           
1 46740U 20074B   25061.57805590  .00002347  00000+0  17640-3 0  9993
2 46740  53.0521 197.0846 0002787 118.5537 241.5733 15.06401682240518
STARLINK-1892           
1 46743U 20074E   25061.58771984 -.00003214  00000+0 -19703-3 0  9994
2 46743  53.0561 192.0503 0001436  70.0238 290.0905 15.06382080240598
STARLINK-1894           
1 46744U 20074F   25061.63198864  .00000421  00000+0  47216-4 0  9997
2 46744  53.0562 192.1191 0002137 100.7364 259.3866 15.06391090240599
STARLINK-1905           
1 46746U 20074H   25061.55457718  .00001140  00000+0  95461-4 0  9990
2 46746  53.0539 192.1969 0001705  86.6276 273.4908 15.06387160240588
STARLINK-1911           
1 46749U 20074L   25061.61720774  .00001214  00000+0  10041-3 0  9997
2 46749  53.0536 191.9158 0001387  81.9389 278.1757 15.06383476240618
STARLINK-1920           
1 46751U 20074N   25061.56915889  .00189691  00000+0  22082-2 0  9990
2 46751  53.0462 159.1901 0006971 233.4910 126.5460 15.60547619241067
STARLINK-1922           
1 46753U 20074Q   25061.59140550 -.00006122  00000+0 -39259-3 0  9994
2 46753  53.0548 192.0340 0001367  81.7726 278.3418 15.06387948240593
STARLINK-1924           
1 46755U 20074S   25061.67018683 -.00003586  00000+0 -22201-3 0  9996
2 46755  53.0554 196.6800 0001268  98.0403 262.0730 15.06389458240557
STARLINK-1925           
1 46756U 20074T   25061.66916286  .00315621  00000+0  14402-2 0  9999
2 46756  53.0431 156.9254 0010993 343.5349  16.5314 15.82314596241103
STARLINK-1928           
1 46758U 20074V   25061.65177034 -.00000669  00000+0 -26011-4 0  9996
2 46758  53.0539 196.7580 0001295  94.5294 265.5843 15.06382495240555
STARLINK-1833           
1 46759U 20074W   25061.91754328  .00202638  00000+0  47159-2 0  9995
2 46759  53.0578 202.8181 0001618  53.3716 306.7437 15.41041161240206
STARLINK-1903           
1 46764U 20074AB  25061.61165993  .00079991  00000+0  21472-2 0  9996
2 46764  53.0368 194.5279 0002198  18.4211 341.6871 15.37263019240562
STARLINK-1916           
1 46766U 20074AD  25061.63712899  .00250012  00000+0  22382-2 0  9999
2 46766  53.0507 194.1563 0003406 337.7666  22.3201 15.67036731240309
STARLINK-1932           
1 46770U 20074AH  25061.67028435  .00287137  00000+0  13258-2 0  9994
2 46770  53.0443 168.1481 0007000   7.4964 352.6161 15.82183884240942
STARLINK-1798           
1 46779U 20074AS  25059.53069593  .01258179  88292-3  20490-2 0  9999
2 46779  53.0404 150.6532 0011087 325.1752 130.8505 16.02792257240701
STARLINK-1832           
1 46780U 20074AT  25061.55917281 -.00004899  00000+0 -31039-3 0  9990
2 46780  53.0552 182.1782 0001459  86.7561 273.3594 15.06375461240724
STARLINK-1835           
1 46782U 20074AV  25061.61445354  .00008034  00000+0  55790-3 0  9999
2 46782  53.0537 181.9251 0001457  85.6357 274.4799 15.06382084240454
STARLINK-1882           
1 46784U 20074AX  25061.58868974  .00010731  00000+0  73842-3 0  9999
2 46784  53.0534 182.2777 0001054  93.8207 266.2903 15.06387563240721
STARLINK-1893           
1 46786U 20074AZ  25061.59786220 -.00002518  00000+0 -15027-3 0  9992
2 46786  53.0528 162.0020 0001322  95.9187 264.1953 15.06388861241018
STARLINK-1931           
1 46790U 20074BD  25061.56930747 -.00000635  00000+0 -23749-4 0  9998
2 46790  53.0550 192.1281 0001857 109.0963 251.0227 15.06376816240265
STARLINK-1934           
1 46792U 20074BF  25061.54443475  .00001984  00000+0  15211-3 0  9995
2 46792  53.0539 182.2399 0001837 102.4071 257.7124 15.06379644240406
STARLINK-1941           
1 46793U 20074BG  25061.65042600  .00416506  75847-4  13715-2 0  9995
2 46793  53.0450 153.4584 0008937  13.1096 347.0160 15.89899249240804
STARLINK-1942           
1 46794U 20074BH  25061.58035333  .00001503  00000+0  11980-3 0  9997
2 46794  53.0547 192.0790 0001400 112.9490 247.1646 15.06386165240596
STARLINK-1944           
1 46796U 20074BK  25061.55547607 -.00000491  00000+0 -14099-4 0  9990
2 46796  53.0544 182.1912 0001282 107.2051 252.9079 15.06409819240720
STARLINK-1777           
1 47122U 20088A   25061.60799636  .00017114  00000+0  11657-2 0  9999
2 47122  53.0541 171.9597 0001277  96.9839 263.1295 15.06379501235753
STARLINK-1812           
1 47126U 20088E   25061.56744629  .00002942  00000+0  21655-3 0  9993
2 47126  53.0540 172.1432 0001557  92.0608 268.0560 15.06358560236054
STARLINK-1838           
1 47129U 20088H   25061.49789156  .00167281  00000+0  24661-2 0  9999
2 47129  53.0442 137.1750 0009640 285.2551  74.7393 15.54287776236246
STARLINK-1843           
1 47133U 20088M   25061.67899236 -.00018822  00000+0 -12505-2 0  9997
2 47133  53.0552 161.6413 0001531  76.0707 284.0452 15.06327407236213
STARLINK-1845           
1 47135U 20088P   25061.67159571  .00010288  00000+0  70890-3 0  9998
2 47135  53.0548 161.6665 0001699 114.1345 245.9822 15.06383371236215
STARLINK-1849           
1 47137U 20088R   25061.71014132  .00407312  00000+0  21842-1 0  9997
2 47137  53.0542 161.4005 0001852  54.7022 305.4142 15.12523350236216
STARLINK-1850           
1 47138U 20088S   25062.16990504  .00541129  00000+0  18256-2 0  9995
2 47138  53.0421 129.0960 0004612  33.1513 326.9800 15.88108273236716
STARLINK-1856           
1 47143U 20088X   25061.54258007  .00000173  00000+0  30530-4 0  9997
2 47143  53.0534 162.2529 0001508 111.7661 248.3489 15.06383259235881
STARLINK-1860           
1 47147U 20088AB  25061.48258105  .00087645  00000+0  17108-2 0  9996
2 47147  53.0188 139.6932 0005641 312.2703  47.7824 15.46756204236459
STARLINK-1861           
1 47148U 20088AC  25061.59418276  .00002438  00000+0  18254-3 0  9997
2 47148  53.0531 162.0204 0001478 107.6692 252.4458 15.06388355235890
STARLINK-1862           
1 47149U 20088AD  25061.69070832  .00323695  00000+0  62905-2 0  9993
2 47149  53.0518 168.0843 0000830  84.7108 275.3993 15.45899666236062
STARLINK-1863           
1 47150U 20088AE  25061.54995953  .00000143  00000+0  28497-4 0  9999
2 47150  53.0531 162.2183 0001551  95.8979 264.2187 15.06385517235896
STARLINK-1866           
1 47152U 20088AG  25061.57246205  .00112738  00000+0  27522-2 0  9993
2 47152  53.0462 155.6622 0006599 238.9171 121.1186 15.39982508235985
STARLINK-1867           
1 47153U 20088AH  25061.50238608  .00168425  00000+0  11939-2 0  9994
2 47153  53.0364 142.6210 0006391  40.8737 319.2759 15.72911294236410
STARLINK-1869           
1 47155U 20088AK  25061.67936438  .00599611  17354-3  10663-2 0  9992
2 47155  53.0299 127.7410 0007903 353.5440 154.2880 16.01223905236623
STARLINK-1871           
1 47157U 20088AM  25061.57852023  .00000122  00000+0  27098-4 0  9992
2 47157  53.0546 172.0916 0001635  96.1859 263.9317 15.06380335235755
STARLINK-1873           
1 47158U 20088AN  25061.53521186 -.00000967  00000+0 -46039-4 0  9997
2 47158  53.0550 162.2871 0001878  86.9818 273.1386 15.06378052235889
STARLINK-1876           
1 47161U 20088AR  25061.56838516  .00000363  00000+0  43305-4 0  9993
2 47161  53.0542 162.1343 0001497  98.4112 261.7047 15.06379485235898
STARLINK-1877           
1 47162U 20088AS  25061.61287710  .00118847  00000+0  19728-2 0  9991
2 47162  53.0461 147.0923 0008801 262.0250  97.9760 15.51205264236360
STARLINK-1879           
1 47164U 20088AU  25061.40858276  .00291798  00000+0  18950-2 0  9994
2 47164  53.0344 118.3676 0011590  38.5881 321.5964 15.74517752236492
STARLINK-1888           
1 47171U 20088BB  25061.51308908  .00015997  00000+0  10909-2 0  9997
2 47171  53.0541 162.3846 0001353 100.9572 259.1569 15.06382326235885
STARLINK-1890           
1 47173U 20088BD  25061.51046853  .00097163  00000+0  16288-2 0  9998
2 47173  53.0439 147.7176 0004514 273.4473  86.6019 15.51059585236099
STARLINK-1907           
1 47177U 20088BH  25062.20858741  .02536841  11883-4  11082-2 0  9992
2 47177  53.0260 115.1930 0006945 354.1034 116.1288 16.21746013236894
STARLINK-1912           
1 47178U 20088BJ  25061.54534172  .00001839  00000+0  14241-3 0  9995
2 47178  53.0552 172.2416 0001512  98.4684 261.6477 15.06385102235745
STARLINK-1913           
1 47179U 20088BK  25061.73240311  .00000260  00000+0  36345-4 0  9993
2 47179  53.0536 181.3996 0001553  99.4365 260.6800 15.06395297235884
STARLINK-2017           
1 47351U 21005C   25061.83926534  .00003793  00000+0  27333-3 0  9994
2 47351  53.0528 250.9066 0001093  85.4039 274.7075 15.06406061228211
